NORAD_CAT_ID,OBJECT_NAME,OBJECT_TYPE,EPOCH,MEAN_MOTION,ECCENTRICITY,INCLINATION,RA_OF_ASC_NODE,ARG_OF_PERICENTER,MEAN_ANOMALY,BSTAR,MEAN_MOTION_DOT,MEAN_MOTION_DDOT,TLE_LINE0,TLE_LINE1,TLE_LINE2,SEMIMAJOR_AXIS,PERIOD,APOGEE,PERIGEE,DECAYED
52118.0,STARLINK-3743,PAYLOAD,2024-05-15 09:48:31,15.08856068,0.0001336,53.2156,176.7064,87.1406,272.9739,6.6022e-05,7.63e-06,0.0,0 STARLINK-3743,1 52118U 22029AG  24136.40869570  .00000763  00000-0  66022-4 0  9993,2 52118  53.2156 176.7064 0001336  87.1406 272.9739 15.08856068120651,6917.831,95.437,540.62,538.772,0.0
52118.0,STARLINK-3743,PAYLOAD,2024-05-16 09:39:18,15.0885361,0.000138,53.2159,172.2463,90.0566,270.0584,0.00049454,7.594e-05,0.0,0 STARLINK-3743,1 52118U 22029AG  24137.40229317  .00007594  00000-0  49454-3 0  9991,2 52118  53.2159 172.2463 0001380  90.0566 270.0584 15.08853610120801,6917.839,95.437,540.658,538.749,0.0
52118.0,STARLINK-3743,PAYLOAD,2024-05-16 19:11:36,15.08867129,0.0001401,53.2158,170.4614,81.6611,278.454,0.00070553,0.00010967,0.0,0 STARLINK-3743,1 52118U 22029AG  24137.79972625  .00010967  00000-0  70553-3 0  9992,2 52118  53.2158 170.4614 0001401  81.6611 278.4540 15.08867129120869,6917.797,95.436,540.632,538.693,0.0
52118.0,STARLINK-3743,PAYLOAD,2024-05-17 11:05:27,15.08847208,0.0001413,53.2146,167.4874,85.5735,274.5418,6.625e-05,7.67e-06,0.0,0 STARLINK-3743,1 52118U 22029AG  24138.46212724  .00000767  00000-0  66250-4 0  9991,2 52118  53.2146 167.4874 0001413  85.5735 274.5418 15.08847208120961,6917.858,95.437,540.701,538.746,0.0
52118.0,STARLINK-3743,PAYLOAD,2024-05-17 19:02:23,15.08851767,0.0001412,53.2146,166.0008,89.0442,271.0711,0.00017207,2.452e-05,0.0,0 STARLINK-3743,1 52118U 22029AG  24138.79332417  .00002452  00000-0  17207-3 0  9999,2 52118  53.2146 166.0008 0001412  89.0442 271.0711 15.08851767121018,6917.844,95.437,540.686,538.733,0.0
52118.0,STARLINK-3743,PAYLOAD,2024-05-18 10:56:14,15.08842192,0.0001381,53.2143,163.0248,95.4465,264.6685,8.692e-05,1.096e-05,0.0,0 STARLINK-3743,1 52118U 22029AG  24139.45572753  .00001096  00000-0  86920-4 0  9994,2 52118  53.2143 163.0248 0001381  95.4465 264.6685 15.08842192121110,6917.874,95.437,540.694,538.783,0.0
52118.0,STARLINK-3743,PAYLOAD,2024-05-18 18:53:10,15.08842825,0.0001354,53.2138,161.5378,100.0455,260.069,0.00046817,7.171e-05,0.0,0 STARLINK-3743,1 52118U 22029AG  24139.78692891  .00007171  00000-0  46817-3 0  9996,2 52118  53.2138 161.5378 0001354 100.0455 260.0690 15.08842825121167,6917.872,95.437,540.673,538.8,0.0
52118.0,STARLINK-3743,PAYLOAD,2024-05-19 07:36:16,15.08828561,0.0001435,53.2142,159.1592,93.4059,266.7097,6.8359e-05,8e-06,0.0,0 STARLINK-3743,1 52118U 22029AG  24140.31685621  .00000800  00000-0  68359-4 0  9998,2 52118  53.2142 159.1592 0001435  93.4059 266.7097 15.08828561121242,6917.915,95.438,540.773,538.788,0.0
52118.0,STARLINK-3743,PAYLOAD,2024-05-20 07:27:03,15.08847507,0.0001442,53.2142,154.6989,91.9848,268.131,0.00074186,0.00011541,0.0,0 STARLINK-3743,1 52118U 22029AG  24141.31045851  .00011541  00000-0  74186-3 0  9992,2 52118  53.2142 154.6989 0001442  91.9848 268.1310 15.08847507121390,6917.857,95.437,540.72,538.725,0.0
52118.0,STARLINK-3743,PAYLOAD,2024-05-21 04:07:04,15.08848756,0.0001585,53.2149,150.8321,93.8127,266.3046,0.00034267,5.171e-05,0.0,0 STARLINK-3743,1 52118U 22029AG  24142.17157604  .00005171  00000-0  34267-3 0  9995,2 52118  53.2149 150.8321 0001585  93.8127 266.3046 15.08848756121522,6917.854,95.437,540.815,538.622,0.0
52118.0,STARLINK-3743,PAYLOAD,2024-05-21 05:42:27,15.08847033,0.0001551,53.215,150.5328,101.3293,258.7874,0.00026754,3.973e-05,0.0,0 STARLINK-3743,1 52118U 22029AG  24142.23781562  .00003973  00000-0  26754-3 0  9998,2 52118  53.2150 150.5328 0001551 101.3293 258.7874 15.08847033121532,6917.859,95.437,540.797,538.651,0.0
52118.0,STARLINK-3743,PAYLOAD,2024-05-22 03:57:51,15.08838249,0.0001496,53.2145,146.3705,100.3461,259.77,-9.6323e-06,-4.41e-06,0.0,0 STARLINK-3743,1 52118U 22029AG  24143.16517803 -.00000441  00000-0 -96323-5 0  9996,2 52118  53.2145 146.3705 0001496 100.3461 259.7700 15.08838249121675,6917.886,95.438,540.786,538.716,0.0
52118.0,STARLINK-3743,PAYLOAD,2024-05-22 05:33:14,15.08838373,0.0001487,53.2147,146.0734,100.9442,259.1717,-1.9554e-06,-3.19e-06,0.0,0 STARLINK-3743,1 52118U 22029AG  24143.23141853 -.00000319  00000-0 -19554-5 0  9997,2 52118  53.2147 146.0734 0001487 100.9442 259.1717 15.08838373121682,6917.885,95.438,540.779,538.722,0.0
52118.0,STARLINK-3743,PAYLOAD,2024-05-23 06:59:24,15.08838116,0.0001397,53.2161,141.3158,93.3081,266.8071,0.00011904,1.607e-05,0.0,0 STARLINK-3743,1 52118U 22029AG  24144.29126046  .00001607  00000-0  11904-3 0  9999,2 52118  53.2161 141.3158 0001397  93.3081 266.8071 15.08838116121841,6917.886,95.438,540.718,538.785,0.0
52118.0,STARLINK-3743,PAYLOAD,2024-05-24 05:14:49,15.08836922,0.0001454,53.2165,137.1539,95.0075,265.1083,0.00010575,1.395e-05,0.0,0 STARLINK-3743,1 52118U 22029AG  24145.21862349  .00001395  00000-0  10575-3 0  9992,2 52118  53.2165 137.1539 0001454  95.0075 265.1083 15.08836922121980,6917.89,95.438,540.761,538.749,0.0
52118.0,STARLINK-3743,PAYLOAD,2024-05-25 05:05:36,15.08839131,0.0001491,53.2167,132.6947,91.5602,268.5561,7.3243e-05,8.78e-06,0.0,0 STARLINK-3743,1 52118U 22029AG  24146.21222413  .00000878  00000-0  73243-4 0  9992,2 52118  53.2167 132.6947 0001491  91.5602 268.5561 15.08839131122134,6917.883,95.438,540.78,538.717,0.0
52118.0,STARLINK-3743,PAYLOAD,2024-05-25 08:16:22,15.0883978,0.0001484,53.2166,132.0991,86.3234,273.7928,7.346e-05,8.81e-06,0.0,0 STARLINK-3743,1 52118U 22029AG  24146.34470374  .00000881  00000-0  73460-4 0  9992,2 52118  53.2166 132.0991 0001484  86.3234 273.7928 15.08839780122158,6917.881,95.438,540.773,538.719,0.0
52118.0,STARLINK-3743,PAYLOAD,2024-05-26 08:07:09,15.08843037,0.0001451,53.2166,127.6396,83.9021,276.2137,0.00010999,1.463e-05,0.0,0 STARLINK-3743,1 52118U 22029AG  24147.33830022  .00001463  00000-0  10999-3 0  9996,2 52118  53.2166 127.6396 0001451  83.9021 276.2137 15.08843037122305,6917.871,95.437,540.74,538.732,0.0
52118.0,STARLINK-3743,PAYLOAD,2024-05-26 22:25:37,15.08842861,0.0001821,53.2166,124.9635,85.1355,274.9845,7.9698e-05,9.81e-06,0.0,0 STARLINK-3743,1 52118U 22029AG  24147.93446175  .00000981  00000-0  79698-4 0  9990,2 52118  53.2166 124.9635 0001821  85.1355 274.9845 15.08842861122390,6917.872,95.437,540.996,538.477,0.0
52118.0,STARLINK-3743,PAYLOAD,2024-05-27 04:47:10,15.08838624,0.000151,53.2165,123.7738,90.197,269.9195,3.4808e-05,2.66e-06,0.0,0 STARLINK-3743,1 52118U 22029AG  24148.19942473  .00000266  00000-0  34808-4 0  9991,2 52118  53.2165 123.7738 0001510  90.1970 269.9195 15.08838624122433,6917.885,95.438,540.794,538.705,0.0
52118.0,STARLINK-3743,PAYLOAD,2024-05-29 04:28:44,15.08836582,0.0001322,53.2165,114.8517,95.011,265.1033,4.4037e-05,4.13e-06,0.0,0 STARLINK-3743,1 52118U 22029AG  24150.18662517  .00000413  00000-0  44037-4 0  9990,2 52118  53.2165 114.8517 0001322  95.0110 265.1033 15.08836582122733,6917.891,95.438,540.67,538.841,0.0
52118.0,STARLINK-3743,PAYLOAD,2024-05-29 21:57:58,15.08839408,0.0001301,53.2165,111.5804,95.5804,264.5337,4.867e-05,4.87e-06,0.0,0 STARLINK-3743,1 52118U 22029AG  24150.91526522  .00000487  00000-0  48670-4 0  9994,2 52118  53.2165 111.5804 0001301  95.5804 264.5337 15.08839408122840,6917.882,95.438,540.647,538.847,0.0
52118.0,STARLINK-3743,PAYLOAD,2024-05-30 07:30:17,15.08839708,0.0001328,53.2167,109.796,101.2609,258.8533,4.6212e-05,4.48e-06,0.0,0 STARLINK-3743,1 52118U 22029AG  24151.31270496  .00000448  00000-0  46212-4 0  9992,2 52118  53.2167 109.7960 0001328 101.2609 258.8533 15.08839708122905,6917.881,95.438,540.665,538.828,0.0
52118.0,STARLINK-3743,PAYLOAD,2024-05-31 05:45:41,15.088393,0.0001321,53.2173,105.6324,96.3372,263.7771,6.3531e-05,7.23e-06,0.0,0 STARLINK-3743,1 52118U 22029AG  24152.24006659  .00000723  00000-0  63531-4 0  9992,2 52118  53.2173 105.6324 0001321  96.3372 263.7771 15.08839300123048,6917.883,95.438,540.661,538.834,0.0
52118.0,STARLINK-3743,PAYLOAD,2024-06-01 04:01:06,15.08832776,0.0001509,53.2183,101.4722,90.385,269.7315,1.0987e-06,-2.7e-06,0.0,0 STARLINK-3743,1 52118U 22029AG  24153.16743460 -.00000270  00000-0  10987-5 0  9998,2 52118  53.2183 101.4722 0001509  90.3850 269.7315 15.08832776123183,6917.902,95.438,540.811,538.724,0.0
52118.0,STARLINK-3743,PAYLOAD,2024-06-01 13:33:24,15.08841276,0.0001478,53.2181,99.6878,92.8294,267.2867,2.597e-05,1.25e-06,0.0,0 STARLINK-3743,1 52118U 22029AG  24153.56486929  .00000125  00000-0  25970-4 0  9991,2 52118  53.2181  99.6878 0001478  92.8294 267.2867 15.08841276123242,6917.876,95.437,540.764,538.719,0.0
52118.0,STARLINK-3743,PAYLOAD,2024-06-02 03:51:53,15.08834289,0.0001499,53.2184,97.0121,88.3041,271.8123,2.3085e-05,7.9e-07,0.0,0 STARLINK-3743,1 52118U 22029AG  24154.16103683  .00000079  00000-0  23085-4 0  9994,2 52118  53.2184  97.0121 0001499  88.3041 271.8123 15.08834289123333,6917.898,95.438,540.8,538.726,0.0
52118.0,STARLINK-3743,PAYLOAD,2024-06-02 13:24:11,15.08845271,0.00014,53.218,95.226,85.303,274.8122,0.00011247,1.503e-05,0.0,0 STARLINK-3743,1 52118U 22029AG  24154.55846764  .00001503  00000-0  11247-3 0  9990,2 52118  53.2180  95.2260 0001400  85.3030 274.8122 15.08845271123391,6917.864,95.437,540.698,538.761,0.0
52118.0,STARLINK-3743,PAYLOAD,2024-06-02 19:45:44,15.08840508,0.0001533,53.2179,94.0354,85.172,274.9447,0.00016605,2.356e-05,0.0,0 STARLINK-3743,1 52118U 22029AG  24154.82342869  .00002356  00000-0  16605-3 0  9997,2 52118  53.2179  94.0354 0001533  85.1720 274.9447 15.08840508123435,6917.879,95.438,540.804,538.683,0.0
52118.0,STARLINK-3743,PAYLOAD,2024-06-03 02:07:17,15.08835518,0.0001521,53.2179,92.847,90.2335,269.8831,0.00011174,1.491e-05,0.0,0 STARLINK-3743,1 52118U 22029AG  24155.08839451  .00001491  00000-0  11174-3 0  9999,2 52118  53.2179  92.8470 0001521  90.2335 269.8831 15.08835518123475,6917.894,95.438,540.811,538.707,0.0
